{"type":"FeatureCollection","features":[{"type":"Feature","properties":{"lines":["Blue"],"line_label":"Blue","segment_type":"eag","segment_type_label":"Elevated","avg_daily_trains":389.9},"geometry":{"type":"MultiLineString","coordinates":[[[-87.6774367,41.9097438],[-87.6757204,41.9086001],[-87.6736279,41.9072586],[-87.6710357,41.9056031],[-87.6706353,41.9053769],[-87.6701429,41.905138],[-87.669,41.9046515],[-87.6682759,41.9044034],[-87.6664961,41.9033551]],[[-87.6968898,41.9219392],[-87.6940621,41.9202378],[-87.6911284,41.918466],[-87.6889676,41.917148],[-87.6873644,41.9161574]],[[-87.6873644,41.9161574],[-87.6852208,41.9147668],[-87.6838186,41.9138621],[-87.6820922,41.9127352],[-87.6809934,41.9120366],[-87.6792775,41.9109176],[-87.6774367,41.9097438]],[[-87.7123594,41.9381317],[-87.7123082,41.9367653],[-87.7122468,41.9345751],[-87.7121976,41.9324216],[-87.7121683,41.9322338],[-87.7121423,41.9320758],[-87.7120609,41.931938],[-87.7119241,41.9318206],[-87.7117962,41.9317375],[-87.7115984,41.9315939],[-87.7103204,41.9308302],[-87.7085414,41.929728]],[[-87.7085414,41.929728],[-87.7073498,41.9289952],[-87.7069219,41.9286917],[-87.7063905,41.928331],[-87.705939,41.9279589],[-87.7055512,41.927605],[-87.705298,41.9273711],[-87.7049973,41.9270951],[-87.7047045,41.9268312],[-87.7043717,41.926573],[-87.7039524,41.926267],[-87.7020276,41.9250596],[-87.6999429,41.9238212],[-87.6982304,41.9227745],[-87.6968898,41.9219392]]]}},{"type":"Feature","properties":{"lines":["Blue"],"line_label":"Blue","segment_type":"hwy","segment_type_label":"Highway median","avg_daily_trains":389.9},"geometry":{"type":"MultiLineString","coordinates":[[[-87.8593877,41.9835073],[-87.8566859,41.9836219],[-87.8535963,41.9837457],[-87.8523816,41.9837719],[-87.8506673,41.9837883],[-87.8481433,41.9838813],[-87.845676,41.983976],[-87.8447737,41.983978],[-87.8433913,41.9840307],[-87.8418569,41.9840944],[-87.8402183,41.9841893],[-87.838026,41.9842941]],[[-87.7291773,41.9529403],[-87.7279785,41.952268],[-87.7263212,41.95132],[-87.7254756,41.9508485],[-87.7235679,41.9497495],[-87.7230166,41.9494362],[-87.7224031,41.9491019],[-87.7218081,41.9488087],[-87.7215473,41.9486877],[-87.7212165,41.9485414],[-87.7209826,41.9484448],[-87.7207337,41.9483274],[-87.7204266,41.9482035],[-87.7201196,41.9480552],[-87.7199196,41.9479558],[-87.7197186,41.9478395],[-87.7194964,41.9476794],[-87.7192782,41.9475119],[-87.7190993,41.9473601]],[[-87.743617,41.9614866],[-87.7434292,41.9613303],[-87.7432641,41.961175],[-87.7430008,41.9609756],[-87.7427443,41.9607575],[-87.74251,41.9605586],[-87.7421455,41.9602828],[-87.7416927,41.9599982],[-87.7412143,41.9597008],[-87.7407403,41.9594068],[-87.7372448,41.9574267],[-87.7359426,41.9567037],[-87.7344656,41.9559504],[-87.7327294,41.9549504],[-87.7304312,41.9536424],[-87.7291773,41.9529403]],[[-87.8088949,41.9823234],[-87.8071845,41.98234],[-87.8060574,41.9823467],[-87.8030657,41.9823639],[-87.801067,41.9823832],[-87.7987617,41.9823963],[-87.7940331,41.9824314],[-87.7906518,41.9824607],[-87.7879231,41.9824776],[-87.7871248,41.9824857],[-87.7865061,41.9824976],[-87.7859793,41.9825011],[-87.7855405,41.9824811],[-87.7851617,41.9824465],[-87.7846874,41.9823758],[-87.7842014,41.9822692],[-87.783644,41.9821177],[-87.7830673,41.9818916],[-87.7825227,41.9816389],[-87.7817523,41.9811945],[-87.7808269,41.9806809],[-87.7798302,41.9801073],[-87.7783818,41.9792795],[-87.7770149,41.9785249],[-87.7752369,41.9775114],[-87.7736831,41.9766329],[-87.7719296,41.9756319],[-87.76944,41.9742116],[-87.7679677,41.9733856],[-87.7672231,41.9729849],[-87.7662388,41.9724342],[-87.7657175,41.9721649],[-87.7653449,41.972008],[-87.7651296,41.9719139],[-87.7647147,41.9717547],[-87.7642972,41.9716145],[-87.7637096,41.9714553],[-87.763202,41.9713453],[-87.7626837,41.9712194],[-87.7620948,41.9710738],[-87.7614898,41.9708785],[-87.7608923,41.9706341]],[[-87.7608923,41.9706341],[-87.7605722,41.970497],[-87.7601263,41.9703059],[-87.7596983,41.9700763],[-87.7591814,41.9697934],[-87.7585686,41.9694378],[-87.7573833,41.968763],[-87.7564001,41.9681953],[-87.7558629,41.9678925],[-87.7553071,41.9675824],[-87.7546624,41.9672194],[-87.7539638,41.9668229],[-87.7533224,41.9664528],[-87.7526146,41.9660157],[-87.752183,41.9657324],[-87.751631,41.9653651],[-87.7508583,41.9647762],[-87.7499967,41.964323],[-87.7497522,41.9641907],[-87.7495106,41.9640752],[-87.7492468,41.9639547],[-87.7489161,41.9638196],[-87.7486967,41.963728],[-87.7483721,41.9636239],[-87.7480221,41.9635078],[-87.7475894,41.9633555],[-87.7469878,41.9631738],[-87.7465549,41.9630501],[-87.7461125,41.962912],[-87.745769,41.962784],[-87.7454637,41.962661],[-87.7452552,41.9625608],[-87.7450222,41.96243],[-87.7447681,41.9622929],[-87.7445587,41.9621608],[-87.7443302,41.9620144],[-87.7440956,41.9618512],[-87.7438832,41.9616905],[-87.743617,41.9614866]],[[-87.9018484,41.9788767],[-87.9015224,41.9791592],[-87.901226,41.9794491],[-87.9010186,41.9796406],[-87.9008186,41.9798266],[-87.9005891,41.9800179],[-87.9001373,41.9804336],[-87.8996486,41.9808437],[-87.8992015,41.9811685],[-87.8987154,41.9814677],[-87.8982301,41.9816464],[-87.8977725,41.9817049],[-87.8971329,41.9817382],[-87.896584,41.9816739],[-87.8962734,41.9815862],[-87.8960127,41.9814674],[-87.8957623,41.9813185],[-87.8956234,41.9811872]],[[-87.8956234,41.9811872],[-87.8956194,41.9811834],[-87.8938264,41.9796471],[-87.8927904,41.9787062],[-87.8917035,41.9777865],[-87.8914814,41.9776259],[-87.8912363,41.977489],[-87.8909502,41.9773553],[-87.8906549,41.977242],[-87.8903092,41.9771556],[-87.8899316,41.9770828],[-87.8895948,41.9770373],[-87.8892805,41.9770327],[-87.8890071,41.9770316],[-87.8887473,41.9770442],[-87.8884007,41.9770939],[-87.8880494,41.9771707],[-87.887717,41.9772775],[-87.8874722,41.9773676],[-87.8872551,41.9774661],[-87.8855078,41.9782295],[-87.8787441,41.9809783],[-87.8787384,41.9809806],[-87.8757005,41.9822337],[-87.8746273,41.9826627],[-87.8743444,41.982773],[-87.8740785,41.98284],[-87.8736378,41.9829744],[-87.8731726,41.9830654],[-87.8727574,41.9831256],[-87.8723673,41.983155],[-87.8719356,41.9831904],[-87.8713901,41.9832098],[-87.8709317,41.9832111],[-87.8703259,41.9832335],[-87.8687661,41.9832643],[-87.8663269,41.9832977],[-87.8639539,41.9833499],[-87.861298,41.9834401],[-87.8593877,41.9835073]],[[-87.7190993,41.9473601],[-87.7189103,41.9472002],[-87.7187903,41.9470638],[-87.7186766,41.9469393],[-87.7185006,41.9466621],[-87.7183084,41.9464085],[-87.7181359,41.9460979],[-87.7178941,41.9456869],[-87.7177058,41.9453595],[-87.7174957,41.9449844],[-87.7172668,41.9445639],[-87.7170313,41.9441648],[-87.716802,41.9437944],[-87.7166477,41.9435744],[-87.7165218,41.9433974],[-87.7163608,41.9432203],[-87.7161683,41.9429977],[-87.7159342,41.9427868],[-87.7156229,41.942554],[-87.7152939,41.9423048],[-87.7150278,41.942132],[-87.7147303,41.9419558],[-87.714523,41.941854],[-87.7142782,41.9417298],[-87.7139355,41.9415612],[-87.7136109,41.9414256],[-87.7132865,41.9412657],[-87.7129948,41.9410937],[-87.7127848,41.9409101],[-87.7125754,41.9406535],[-87.7124795,41.9404583],[-87.7124174,41.9401416],[-87.7123943,41.9392645],[-87.7123594,41.9381317]],[[-87.838026,41.9842941],[-87.8367863,41.9843401],[-87.8356123,41.9843953],[-87.8342185,41.9844671],[-87.8327553,41.9845365],[-87.8311585,41.9845732],[-87.8295915,41.984548],[-87.8283386,41.9845057],[-87.8268442,41.9844348],[-87.8252764,41.984313],[-87.824049,41.9841628],[-87.8230031,41.9840364],[-87.8217896,41.9838886],[-87.8207531,41.9837484],[-87.819489,41.9835751],[-87.818607,41.9834416],[-87.8177277,41.9832596],[-87.8168486,41.9830564],[-87.8159402,41.9828332],[-87.8152796,41.9826579],[-87.8146987,41.9825358],[-87.8142036,41.9824555],[-87.8135517,41.9823491],[-87.8130348,41.9823077],[-87.8124808,41.9822823],[-87.8111229,41.9822899],[-87.8098433,41.9823139],[-87.8088949,41.9823234]]]}},{"type":"Feature","properties":{"lines":["Blue"],"line_label":"Blue","segment_type":"hwy","segment_type_label":"Highway median","avg_daily_trains":292.4},"geometry":{"type":"MultiLineString","coordinates":[[[-87.7256249,41.8738887],[-87.7251425,41.8738932],[-87.7242184,41.8739166],[-87.7196966,41.873968],[-87.7156162,41.8740168],[-87.7142161,41.8740375],[-87.7125227,41.8740637],[-87.710757,41.8740648],[-87.7094482,41.8740965],[-87.708256,41.8741325],[-87.7078552,41.8741751],[-87.7075206,41.8742086],[-87.7071923,41.8742539],[-87.7067597,41.8743129],[-87.7061905,41.8743961],[-87.7059783,41.8744255]],[[-87.6739459,41.8756354],[-87.6733592,41.8756511],[-87.6727536,41.8756548],[-87.6688644,41.8757346],[-87.6675311,41.8757618]],[[-87.8173178,41.8742573],[-87.8159056,41.8741402],[-87.81556,41.8741017],[-87.8152341,41.8740707],[-87.815017,41.8740328],[-87.8148396,41.8739803],[-87.814682,41.8739131],[-87.8144752,41.8738161],[-87.814298,41.8737415],[-87.8141011,41.8736519],[-87.8139334,41.8736069],[-87.8137042,41.8735815],[-87.8134252,41.8736024],[-87.8132122,41.8736107],[-87.8130215,41.8736297],[-87.8128604,41.8736538],[-87.8126844,41.8736726],[-87.8124127,41.8736816],[-87.8121269,41.8737184],[-87.8119724,41.8737365],[-87.8118117,41.8737554],[-87.8114893,41.8737981],[-87.8113352,41.8738111],[-87.8112476,41.8738143],[-87.8111002,41.8738197],[-87.8107993,41.8738401],[-87.8104465,41.8738393],[-87.8090024,41.8736934],[-87.8069609,41.8734901]],[[-87.6409842,41.8755389],[-87.6419078,41.8755126],[-87.6471004,41.8755218],[-87.6496422,41.8755162]],[[-87.7767853,41.8708864],[-87.7744509,41.8707424],[-87.7739537,41.8707199],[-87.7724573,41.8706282],[-87.7701432,41.870489],[-87.7682493,41.870376],[-87.7673892,41.8703128],[-87.7649035,41.8700979],[-87.7643207,41.8700455],[-87.7638447,41.8700385],[-87.7635357,41.8700463],[-87.7632927,41.8700711],[-87.763015,41.870105],[-87.7627592,41.8701509],[-87.7625286,41.8701969],[-87.7623707,41.8702314],[-87.7621177,41.8703103],[-87.7618837,41.8703893],[-87.7616622,41.8704848],[-87.7612569,41.8706736],[-87.7609119,41.8708274],[-87.7605986,41.8709579],[-87.7604309,41.8710254],[-87.7601083,41.8711345],[-87.7597825,41.8712578],[-87.759397,41.8713501],[-87.7589141,41.8714113],[-87.7583369,41.871432],[-87.7576525,41.8714616],[-87.7567443,41.8714806],[-87.7558394,41.8714878],[-87.7533517,41.8714988],[-87.7499871,41.8715572],[-87.7451722,41.8716081]],[[-87.7059783,41.8744255],[-87.7039401,41.874724],[-87.7014678,41.875085],[-87.7008135,41.8751767],[-87.7004338,41.8752151],[-87.700003,41.8752628],[-87.6996043,41.8752963],[-87.6991641,41.8753296],[-87.6987782,41.8753561],[-87.6983062,41.8753797],[-87.6977801,41.8753982],[-87.6967297,41.8753958],[-87.6960171,41.8754092],[-87.6923295,41.8754698],[-87.6914775,41.8754716],[-87.6910347,41.8754917],[-87.6884345,41.8755296]],[[-87.7916021,41.872108],[-87.7872369,41.8717239],[-87.7841829,41.8714506],[-87.7825158,41.8713013],[-87.7782623,41.8709782],[-87.7767853,41.8708864]],[[-87.6884345,41.8755296],[-87.6870278,41.8755383],[-87.6861289,41.8755451],[-87.680268,41.8755808],[-87.6764514,41.8756093],[-87.6739459,41.8756354]],[[-87.8069609,41.8734901],[-87.8056871,41.8733632],[-87.8044834,41.8732488],[-87.8015176,41.8729671],[-87.7963544,41.8725069],[-87.7927902,41.8722125],[-87.7916021,41.872108]],[[-87.7451722,41.8716081],[-87.7448538,41.8716041],[-87.7438068,41.871634],[-87.7414576,41.8716667],[-87.7406597,41.8716838],[-87.7401803,41.8717026],[-87.7397607,41.8717381],[-87.7394071,41.8717881],[-87.7387975,41.8719075],[-87.7385131,41.871972],[-87.7381654,41.8720645],[-87.7378715,41.8721431],[-87.7374507,41.8722988],[-87.737109,41.8724313],[-87.7362347,41.8728698],[-87.7358356,41.873061],[-87.7350382,41.8733773],[-87.7346999,41.8734745],[-87.7342131,41.8736063],[-87.7337488,41.8736958],[-87.7331837,41.8737729],[-87.7326789,41.873808],[-87.7302635,41.8738283],[-87.727066,41.8738751],[-87.7256249,41.8738887]],[[-87.6594555,41.8758856],[-87.6601835,41.8758712],[-87.6649902,41.8758102],[-87.6665813,41.8757721],[-87.6675311,41.8757618]],[[-87.6496422,41.8755162],[-87.6503982,41.8754771],[-87.6517952,41.8754656],[-87.6537555,41.8755988],[-87.6558425,41.8757793],[-87.6568057,41.875835],[-87.6569732,41.8758468],[-87.6573856,41.8758761],[-87.6578629,41.8759003],[-87.6582081,41.8758965],[-87.6586331,41.8758953],[-87.6589805,41.8758828],[-87.6593444,41.8758808],[-87.6594555,41.8758856]]]}},{"type":"Feature","properties":{"lines":["Blue"],"line_label":"Blue","segment_type":"subway","segment_type_label":"Subway","avg_daily_trains":389.9},"geometry":{"type":"MultiLineString","coordinates":[[[-87.6475783,41.8911893],[-87.6467773,41.8906669],[-87.6457158,41.8899696],[-87.6450561,41.8895183],[-87.6444438,41.8890993],[-87.6433534,41.8883015],[-87.642655,41.8877865],[-87.6419589,41.8872746],[-87.6411946,41.8867125],[-87.6408544,41.8864623],[-87.6405751,41.8862568],[-87.6400075,41.8858393],[-87.6399376,41.885791],[-87.6398491,41.8857506],[-87.6396977,41.8857311],[-87.6394432,41.8857026],[-87.6381504,41.8857078],[-87.6360573,41.8857161],[-87.6339132,41.8857245],[-87.6328457,41.8857301],[-87.6320398,41.8857367],[-87.630886,41.885737]],[[-87.6664961,41.9033551],[-87.6659264,41.9029715],[-87.6652369,41.9025207],[-87.6641701,41.9018424],[-87.6635745,41.9014621],[-87.6625869,41.9008239],[-87.6616223,41.9002203],[-87.6609014,41.8997448],[-87.6598689,41.8990969],[-87.6587856,41.898395],[-87.6578143,41.8977739],[-87.656717,41.897053],[-87.6557968,41.896444],[-87.6552143,41.8960752]],[[-87.6293777,41.8807035],[-87.6293387,41.8794975],[-87.6293238,41.8790355],[-87.6293137,41.8787304],[-87.6292962,41.8781996],[-87.6292957,41.8781825]],[[-87.6294401,41.8831644],[-87.6294238,41.8821279],[-87.6294197,41.8820029],[-87.6293984,41.8813449],[-87.6293795,41.8807586],[-87.6293777,41.8807035]],[[-87.630886,41.885737],[-87.6301985,41.8857375],[-87.6301139,41.8857377],[-87.6299217,41.8857382],[-87.6298163,41.8857384],[-87.6297528,41.8857332],[-87.6297044,41.8857229],[-87.6296603,41.8857078],[-87.6295834,41.8856777],[-87.6295247,41.8856331],[-87.629478,41.8855708],[-87.6294706,41.8855151],[-87.6294674,41.885465],[-87.6294656,41.8853691],[-87.6294401,41.8831644]],[[-87.6552143,41.8960752],[-87.6548458,41.8958502],[-87.6538003,41.8952019],[-87.6528475,41.8945957],[-87.651929,41.8939775],[-87.6504432,41.8930241],[-87.649423,41.8923691],[-87.6485859,41.8918412],[-87.6475783,41.8911893]],[[-87.6317221,41.8755676],[-87.6336256,41.8755686],[-87.6372988,41.875604],[-87.6409842,41.8755389]],[[-87.6292957,41.8781825],[-87.629253,41.8768861],[-87.6292516,41.8768434],[-87.6292402,41.8764983],[-87.6292339,41.8763063],[-87.6292208,41.8759769],[-87.6292267,41.8758612],[-87.6292858,41.8757406],[-87.6294207,41.8756655],[-87.629548,41.8756286],[-87.6296903,41.8756083],[-87.6317221,41.8755676]]]}},{"type":"Feature","properties":{"lines":["Brown"],"line_label":"Brown","segment_type":"eag","segment_type_label":"Elevated","avg_daily_trains":320.0},"geometry":{"type":"MultiLineString","coordinates":[[[-87.7088438,41.9660926],[-87.7076281,41.9661081],[-87.7064502,41.966116],[-87.7039923,41.9661335],[-87.7026676,41.9661382],[-87.7016557,41.9661469]],[[-87.6941111,41.9662099],[-87.6914457,41.9662308],[-87.690255,41.9662432],[-87.6894633,41.9662531],[-87.6885026,41.96625]],[[-87.6786349,41.966411],[-87.6776644,41.9664221],[-87.6774092,41.9664135],[-87.677221,41.9664029],[-87.6769547,41.9663799],[-87.6766489,41.966321],[-87.6763817,41.9662314],[-87.6761275,41.9661156],[-87.6758897,41.9659617],[-87.6756968,41.9657891],[-87.6755738,41.9656455],[-87.6754447,41.9654709],[-87.675391,41.9653623],[-87.675304,41.965189],[-87.6752417,41.9650338],[-87.6752286,41.9649098],[-87.6752173,41.9647692],[-87.6752157,41.964612],[-87.6752055,41.9643642],[-87.6751899,41.9637114],[-87.6751654,41.9617517]],[[-87.6747361,41.9470287],[-87.6746833,41.9459626],[-87.6746599,41.9451311],[-87.67463,41.9449403],[-87.6745714,41.9447375],[-87.6745,41.9445513],[-87.6744187,41.9443817],[-87.674299,41.9442362],[-87.6741947,41.9441427],[-87.6740489,41.9440418],[-87.6738586,41.9439335],[-87.6736711,41.9438634],[-87.6734771,41.9438003],[-87.6733403,41.9437638],[-87.6731077,41.9437267],[-87.6728942,41.9437017],[-87.6726295,41.9436859],[-87.6723392,41.9436866],[-87.6715002,41.943702],[-87.6708839,41.9437091]],[[-87.6708839,41.9437091],[-87.6693841,41.9437267],[-87.6674868,41.9437681],[-87.6658466,41.9437824],[-87.6650807,41.9437899],[-87.6636096,41.9438123]],[[-87.713142,41.9679282],[-87.7131152,41.9666667],[-87.7131103,41.9664343],[-87.7130986,41.9663533],[-87.7130874,41.9662953],[-87.7130337,41.9662149],[-87.7129794,41.9661503],[-87.7129202,41.966115],[-87.7128025,41.9660716],[-87.7126811,41.9660469],[-87.7125522,41.9660489],[-87.7123987,41.9660456],[-87.7121872,41.9660523],[-87.711726,41.9660609],[-87.7110788,41.9660745],[-87.7102745,41.9660749],[-87.7088438,41.9660926]],[[-87.7016557,41.9661469],[-87.7007524,41.9661467],[-87.6995363,41.9661519],[-87.6987287,41.9661593],[-87.6978922,41.9661833],[-87.6967493,41.9661984],[-87.6950224,41.9662055],[-87.6941111,41.9662099]],[[-87.6749557,41.9545231],[-87.6749077,41.9539226],[-87.6748659,41.9530228],[-87.6748538,41.9520213],[-87.6748355,41.9510136],[-87.6747927,41.9495874],[-87.6747647,41.9485915],[-87.6747361,41.9470287]],[[-87.6636096,41.9438123],[-87.6590952,41.9439073],[-87.6576657,41.9439108],[-87.6560829,41.9439325],[-87.6554957,41.9439409],[-87.6552149,41.9439416],[-87.65503,41.9439286],[-87.6548803,41.9439039],[-87.6546989,41.94386],[-87.6545432,41.9438019],[-87.6544129,41.9437463],[-87.6542481,41.9436405],[-87.6540995,41.9435134],[-87.6540048,41.9434199],[-87.6539166,41.9433098],[-87.6538222,41.9431854],[-87.6537469,41.9430635],[-87.6536655,41.9429201],[-87.6536077,41.942803],[-87.6535547,41.942686],[-87.6535113,41.9425714],[-87.653475,41.942383],[-87.6534539,41.9421768]],[[-87.6885026,41.96625],[-87.6871809,41.9662807],[-87.6854538,41.9663091],[-87.6839854,41.9663246],[-87.6827147,41.9663532],[-87.6815942,41.9663635],[-87.6803396,41.9663826],[-87.6786349,41.966411]],[[-87.6751654,41.9617517],[-87.6751308,41.9607715],[-87.6750542,41.9579849],[-87.6750072,41.9566578],[-87.6749718,41.9551307],[-87.6749557,41.9545231]]]}},{"type":"Feature","properties":{"lines":["Brown","Green","Orange","Pink","Purple"],"line_label":"Brown/Green/Orange/Pink/Purple","segment_type":"eag","segment_type_label":"Elevated","avg_daily_trains":1147.9},"geometry":{"type":"MultiLineString","coordinates":[[[-87.6260979,41.8795102],[-87.6261562,41.8820309],[-87.6261888,41.88322]],[[-87.6261888,41.88322],[-87.6262567,41.8853427],[-87.6262548,41.8855214],[-87.6262529,41.88557],[-87.6262677,41.8856178],[-87.6263023,41.8856583],[-87.6263468,41.8856894],[-87.6264207,41.8857225],[-87.6265032,41.885733],[-87.6265544,41.8857362],[-87.6266122,41.8857385],[-87.6268299,41.8857388],[-87.6278352,41.8857404]],[[-87.6278352,41.8857404],[-87.6288718,41.8857406],[-87.6294782,41.8857392],[-87.6298163,41.8857384],[-87.6299217,41.8857382],[-87.6301139,41.8857377],[-87.6301985,41.8857375],[-87.630886,41.885737]],[[-87.630886,41.885737],[-87.6320398,41.8857367],[-87.6328457,41.8857301],[-87.6339132,41.8857245]],[[-87.62603,41.8767036],[-87.6260538,41.878307],[-87.6260979,41.8795102]]]}},{"type":"Feature","properties":{"lines":["Brown","Purple"],"line_label":"Brown/Purple","segment_type":"eag","segment_type_label":"Elevated","avg_daily_trains":401.1},"geometry":{"type":"MultiLineString","coordinates":[[[-87.6393022,41.9104092],[-87.6397462,41.910405],[-87.6403779,41.910401],[-87.6409998,41.910397],[-87.6425497,41.9103871],[-87.6434788,41.9103632],[-87.6452297,41.9103407],[-87.6458038,41.9103417],[-87.646456,41.9103326],[-87.6466436,41.91033],[-87.6468177,41.9103384],[-87.646969,41.9103629],[-87.6470949,41.9103967],[-87.6471796,41.9104443],[-87.6472768,41.9105109],[-87.6473357,41.9106127],[-87.6473568,41.9107071],[-87.6473773,41.9108582],[-87.6473907,41.9110126],[-87.6474045,41.9111247],[-87.6474485,41.9112203],[-87.6475579,41.9113852],[-87.6476802,41.911459],[-87.6478124,41.9114999],[-87.6479164,41.9115123],[-87.6486269,41.9115047],[-87.6488322,41.9114989],[-87.6489995,41.9114999],[-87.6492044,41.911527],[-87.6493901,41.91158],[-87.6494814,41.9116018],[-87.6495662,41.9116448],[-87.6497139,41.911714],[-87.6498487,41.9117974],[-87.6501683,41.9120304],[-87.6509262,41.9126009],[-87.6518274,41.913217],[-87.6520781,41.9133883],[-87.6522284,41.9135071],[-87.652344,41.9136186],[-87.6524219,41.9137652],[-87.6525004,41.9140595]],[[-87.6339734,41.8889679],[-87.6339556,41.8870693],[-87.6339132,41.8857245]],[[-87.6359467,41.8967742],[-87.6358341,41.8966681],[-87.635735,41.8965449],[-87.635685,41.8964517],[-87.6356832,41.8963279],[-87.6356452,41.89542],[-87.6356283,41.894336],[-87.6355953,41.893271],[-87.6355802,41.8926063],[-87.6355352,41.8914674],[-87.6355265,41.8905121],[-87.6354809,41.8903022],[-87.6353991,41.8902064],[-87.6353266,41.890125],[-87.6352399,41.8900701],[-87.6350792,41.8900115],[-87.634933,41.8899701],[-87.6347539,41.8899363],[-87.6346158,41.8899118],[-87.6344677,41.8898864],[-87.6343638,41.8898404],[-87.6342464,41.8897873],[-87.6341368,41.889702],[-87.6340717,41.8896237],[-87.6340201,41.8895219],[-87.6339934,41.8894262],[-87.6339734,41.8889679]],[[-87.6359467,41.8967742],[-87.6362256,41.896986],[-87.6363402,41.8970788],[-87.6364088,41.8971483],[-87.6364924,41.8972553],[-87.6365411,41.8973765],[-87.6365424,41.8976097],[-87.636565,41.898666],[-87.6365781,41.8989156],[-87.6366221,41.8997519],[-87.6366393,41.9000792],[-87.6366366,41.9002872],[-87.6367038,41.9011943],[-87.6366987,41.9013123],[-87.6366897,41.9014273],[-87.6366575,41.9015567],[-87.6365897,41.9017721],[-87.6365305,41.9019013],[-87.6365022,41.902022],[-87.6364704,41.9021111],[-87.6364655,41.9022089],[-87.6364562,41.9023499],[-87.6364898,41.9024509],[-87.6365273,41.9025489],[-87.6365916,41.902653],[-87.6367096,41.9027918],[-87.6368237,41.9029249],[-87.6368808,41.9029944],[-87.6369449,41.9031157],[-87.6369939,41.9032196],[-87.637008,41.9033377],[-87.6370236,41.9036774],[-87.6370155,41.9038113],[-87.6371086,41.9054338],[-87.6371325,41.9060672],[-87.6371816,41.9075758],[-87.6372267,41.9087418],[-87.6372493,41.9095076],[-87.6372623,41.9097293],[-87.6372686,41.9098589],[-87.637296,41.9099906],[-87.6373626,41.9101084],[-87.6374601,41.910208],[-87.6375704,41.9102709],[-87.6377115,41.9103408],[-87.6378712,41.9103925],[-87.6379759,41.9104092],[-87.6381392,41.910419],[-87.6393022,41.9104092]]]}},{"type":"Feature","properties":{"lines":["Brown","Purple","Red"],"line_label":"Brown/Purple/Red","segment_type":"eag","segment_type_label":"Elevated","avg_daily_trains":799.9},"geometry":{"type":"MultiLineString","coordinates":[[[-87.6534539,41.9421768],[-87.6534419,41.9418523],[-87.6534229,41.9414568],[-87.6533971,41.9408324],[-87.653383,41.9399138],[-87.6533805,41.9397507]],[[-87.6531309,41.9327315],[-87.6530958,41.932177],[-87.6530704,41.9315147],[-87.6530468,41.9309017],[-87.6530237,41.9303017],[-87.6529932,41.9295075],[-87.6529622,41.9287028],[-87.6529548,41.9284181],[-87.6529354,41.9276781],[-87.6529216,41.9271488],[-87.6528913,41.9259912],[-87.6528751,41.9253685],[-87.6528658,41.9250514]],[[-87.6532664,41.9360326],[-87.6532349,41.9353199],[-87.6532168,41.9349102],[-87.6531965,41.9344521],[-87.6531373,41.9331168],[-87.6531309,41.9327315]],[[-87.6533805,41.9397507],[-87.6533749,41.9393876],[-87.6533679,41.9389288],[-87.6533636,41.9386503],[-87.6533258,41.9376322],[-87.6533087,41.9371696],[-87.6532751,41.9362666],[-87.6532664,41.9360326]],[[-87.6528658,41.9250514],[-87.6528172,41.9235223],[-87.6527599,41.9217182],[-87.6527411,41.9211286],[-87.6526443,41.9182166]],[[-87.6526443,41.9182166],[-87.6526398,41.9180817],[-87.6526249,41.9176326],[-87.6526098,41.9171793],[-87.6525484,41.9156258],[-87.652538,41.9154018],[-87.6525253,41.9150944],[-87.652513,41.9147537],[-87.6525004,41.9140595]]]}},{"type":"Feature","properties":{"lines":["Brown","Orange","Pink","Purple"],"line_label":"Brown/Orange/Pink/Purple","segment_type":"eag","segment_type_label":"Elevated","avg_daily_trains":900.9},"geometry":{"type":"MultiLineString","coordinates":[[[-87.6282091,41.8769083],[-87.6275672,41.8769321],[-87.6264961,41.8769593],[-87.6263491,41.8769605],[-87.6262505,41.8769456],[-87.6261205,41.8768805],[-87.6260512,41.8768062],[-87.62603,41.8767036]],[[-87.6317338,41.8768553],[-87.629253,41.8768861],[-87.6282091,41.8769083]],[[-87.6339132,41.8857245],[-87.6338891,41.8844056],[-87.6338535,41.882695]],[[-87.63374,41.8787233],[-87.6336865,41.8772613],[-87.6336931,41.8770628],[-87.6336452,41.8769528],[-87.6335852,41.8769071],[-87.6335281,41.8768806],[-87.6334486,41.8768587],[-87.6333755,41.8768463],[-87.6326264,41.8768489],[-87.6317338,41.8768553]],[[-87.6338535,41.882695],[-87.6338449,41.8814396],[-87.6337826,41.8801409],[-87.63374,41.8787233]]]}},{"type":"Feature","properties":{"lines":["Green"],"line_label":"Green","segment_type":"eag","segment_type_label":"Elevated","avg_daily_trains":122.1},"geometry":{"type":"MultiLineString","coordinates":[[[-87.6440231,41.7790279],[-87.6449396,41.7790224],[-87.6454051,41.7790274],[-87.6457119,41.779084],[-87.6460333,41.7791517],[-87.6463869,41.7792152],[-87.6495875,41.7791795],[-87.6526243,41.7791296],[-87.6570899,41.779077],[-87.6615627,41.7789918],[-87.6638448,41.7789534]],[[-87.6181432,41.7874684],[-87.6181774,41.7872889],[-87.6182281,41.7872037],[-87.6183199,41.7871122],[-87.618432,41.7870406],[-87.6185496,41.7869975],[-87.6187344,41.7869702],[-87.6206498,41.7869382],[-87.6229458,41.7869196],[-87.6241144,41.7869049],[-87.6247001,41.7868932],[-87.6257044,41.7869059],[-87.6279276,41.7868451],[-87.6294125,41.7868191],[-87.6307102,41.786781],[-87.630968,41.7867717],[-87.6312112,41.7867556],[-87.6313785,41.786715],[-87.6315607,41.7866591],[-87.6316962,41.7865898],[-87.6317847,41.7865268],[-87.6318497,41.7864768],[-87.6319001,41.7864135],[-87.6319567,41.7863306],[-87.6320015,41.7862498],[-87.6320349,41.7861339],[-87.6320158,41.7857371],[-87.6320471,41.7836728],[-87.6320512,41.7832958],[-87.6320284,41.7818986],[-87.6320293,41.7815435],[-87.6320004,41.7807383],[-87.6320027,41.7805415],[-87.6320148,41.7804564],[-87.6320511,41.7803558],[-87.6320986,41.7802904],[-87.6321846,41.7801945],[-87.6324562,41.7799879],[-87.6328756,41.7796552],[-87.6330971,41.7794834],[-87.6333738,41.7793426],[-87.6335323,41.7793063],[-87.633755,41.7792923],[-87.634177,41.7792598],[-87.6347161,41.7792237],[-87.6356481,41.7791417],[-87.6372997,41.7791188],[-87.6395956,41.7790779],[-87.6440231,41.7790279]]]}},{"type":"Feature","properties":{"lines":["Green"],"line_label":"Green","segment_type":"eag","segment_type_label":"Elevated","avg_daily_trains":124.9},"geometry":{"type":"MultiLineString","coordinates":[[[-87.6155459,41.7801297],[-87.6122885,41.7801725],[-87.6097057,41.7802447],[-87.6058574,41.7803088]],[[-87.6181432,41.7874684],[-87.6180141,41.7847662],[-87.6180026,41.7838081],[-87.6179551,41.7814568],[-87.6179389,41.7803565],[-87.6179025,41.7802214],[-87.617818,41.7801427],[-87.617686,41.7800709],[-87.617506,41.7800556],[-87.6170883,41.7800885],[-87.6155459,41.7801297]]]}},{"type":"Feature","properties":{"lines":["Green"],"line_label":"Green","segment_type":"eag","segment_type_label":"Elevated","avg_daily_trains":246.9},"geometry":{"type":"MultiLineString","coordinates":[[[-87.6185016,41.8020916],[-87.6184931,41.8015564],[-87.6184496,41.7993251],[-87.6183643,41.7970355],[-87.618339,41.7956759],[-87.6183241,41.7951767]],[[-87.6190358,41.8164632],[-87.6189787,41.8147531],[-87.6189204,41.8127005],[-87.6188582,41.8105955],[-87.6188261,41.8092088]],[[-87.6258815,41.831678],[-87.6258665,41.8309755],[-87.6257829,41.8278488],[-87.6257098,41.8247865],[-87.6256681,41.8224614],[-87.6256357,41.8221476],[-87.6255898,41.8220512],[-87.625546,41.8219866],[-87.6254736,41.8219099],[-87.625312,41.8218327],[-87.6251628,41.8217865],[-87.6250484,41.8217667],[-87.6248065,41.8217557],[-87.6244274,41.8217677],[-87.6235386,41.8217908],[-87.6214628,41.8218152]],[[-87.6188261,41.8092088],[-87.6187677,41.8067476],[-87.618704,41.8064827],[-87.6186735,41.8063658],[-87.618637,41.8062107],[-87.6186193,41.8060891],[-87.6186035,41.8057936],[-87.6185808,41.8039245],[-87.6185016,41.8020916]],[[-87.6214628,41.8218152],[-87.6200221,41.8218416],[-87.6197484,41.8218257],[-87.6195928,41.8217913],[-87.6194786,41.8217501],[-87.6193552,41.8216755],[-87.619267,41.8215868],[-87.6191954,41.8214688],[-87.6191616,41.8213313],[-87.6191638,41.8211336],[-87.6191594,41.8209525],[-87.6190922,41.818689],[-87.6190358,41.8164632]],[[-87.626418,41.8587587],[-87.6264558,41.8583888],[-87.6264884,41.8580693],[-87.6264647,41.8564612],[-87.6264448,41.8553772],[-87.6264069,41.8533188],[-87.6264024,41.8531151]],[[-87.6264024,41.8531151],[-87.6263388,41.8502435],[-87.6263241,41.8495516],[-87.6262655,41.8479797],[-87.6262546,41.8474701],[-87.6262301,41.8470983],[-87.626152,41.844323],[-87.6261471,41.8427002],[-87.6261247,41.8418673],[-87.6261145,41.8411554],[-87.6260015,41.8382796],[-87.625982,41.8372178],[-87.6259273,41.8349417],[-87.6258815,41.831678]],[[-87.6183241,41.7951767],[-87.6182717,41.7932933],[-87.6182269,41.7915343],[-87.6181403,41.7893071],[-87.6181763,41.7889654],[-87.6181432,41.7874684]]]}},{"type":"Feature","properties":{"lines":["Green"],"line_label":"Green","segment_type":"eag","segment_type_label":"Elevated","avg_daily_trains":246.9},"geometry":{"type":"MultiLineString","coordinates":[[[-87.7937834,41.8869875],[-87.7944945,41.886974],[-87.7955704,41.8869575],[-87.7964386,41.8869453],[-87.7971294,41.8869356],[-87.79795,41.8869241],[-87.7986316,41.8869197],[-87.799921,41.8869113],[-87.8007151,41.8868944],[-87.8013531,41.8868808],[-87.802105,41.8868647],[-87.803176,41.8868483]],[[-87.7656495,41.887389],[-87.7664992,41.8873884],[-87.767413,41.8873814],[-87.7680327,41.8873613],[-87.7690161,41.8873603],[-87.7700151,41.8873537],[-87.771897,41.8873339],[-87.7731595,41.8873054],[-87.7741353,41.8872928]],[[-87.7446984,41.8865194],[-87.7454671,41.8865941],[-87.7464577,41.8866571],[-87.7487021,41.88679],[-87.7503505,41.8868968],[-87.7516199,41.8869553],[-87.7532685,41.8870446],[-87.7549865,41.8871632]],[[-87.7165228,41.8849044],[-87.7167991,41.8849206],[-87.7199567,41.8851057],[-87.7208682,41.885157],[-87.7215566,41.8851957],[-87.7224213,41.8852443],[-87.7229653,41.8852749],[-87.7246167,41.8853677],[-87.7254038,41.885412]],[[-87.7061554,41.8843211],[-87.7066849,41.8843525],[-87.7074488,41.8843978],[-87.7085744,41.8844646],[-87.7093476,41.8845063],[-87.7110632,41.8845989],[-87.7120738,41.8846535],[-87.7126794,41.8846861],[-87.7141424,41.8847651],[-87.7145518,41.8847888],[-87.7152979,41.8848325],[-87.7160105,41.8848743],[-87.7165228,41.8849044]],[[-87.6694287,41.8852426],[-87.6708185,41.8852041],[-87.6722208,41.8851369],[-87.6730807,41.8851014],[-87.6742968,41.8850563],[-87.6757918,41.885007],[-87.6766516,41.8849772],[-87.6777517,41.8849256],[-87.6794558,41.8848717],[-87.6804318,41.8848309],[-87.681834,41.8847694],[-87.6840417,41.8846836],[-87.6860868,41.8845968],[-87.6876513,41.8845593],[-87.6898127,41.8844557],[-87.6907501,41.8844089],[-87.6916719,41.8843735],[-87.6926478,41.88435],[-87.6935928,41.8843148],[-87.6951111,41.8842538],[-87.6962342,41.8842195]],[[-87.783661,41.8871594],[-87.7845129,41.8871461],[-87.7861935,41.8871252],[-87.787936,41.8870988],[-87.7886022,41.887073],[-87.7895625,41.8870602],[-87.791243,41.8870392],[-87.792459,41.8870102],[-87.7937834,41.8869875]],[[-87.7549865,41.8871632],[-87.7553116,41.8871764],[-87.755737,41.8872364],[-87.7561468,41.8873021],[-87.7565023,41.8873792],[-87.756773,41.8874152],[-87.7570128,41.8874454],[-87.757268,41.8874756],[-87.7575621,41.8874944],[-87.7578099,41.8875014],[-87.7584582,41.8874754],[-87.7607747,41.8874401],[-87.762596,41.8874385],[-87.7639978,41.8874108],[-87.7651315,41.8873868],[-87.7656495,41.887389]],[[-87.6962342,41.8842195],[-87.6978689,41.8841302],[-87.6987983,41.8841122],[-87.6995265,41.8840757],[-87.7002319,41.8840578],[-87.7006254,41.8840388],[-87.701077,41.8840314],[-87.7012901,41.8840224],[-87.7013121,41.8840214],[-87.7027739,41.8841145],[-87.7037135,41.8841742],[-87.7041832,41.8842041],[-87.7056037,41.8842884],[-87.7056731,41.8842925],[-87.7061164,41.8843188],[-87.7061554,41.8843211]],[[-87.7741353,41.8872928],[-87.775111,41.8872917],[-87.7761333,41.8872678],[-87.7773724,41.8872564],[-87.7785651,41.8872333],[-87.7797964,41.8872276],[-87.7810045,41.8872103],[-87.782476,41.8871942],[-87.783661,41.8871594]],[[-87.7254038,41.885412],[-87.7257289,41.8854305],[-87.7262459,41.8854601],[-87.7267384,41.8854883],[-87.7292555,41.8856326],[-87.7299439,41.8856721],[-87.7311327,41.8857402],[-87.732043,41.8857924],[-87.7331139,41.8858537],[-87.7337993,41.885893],[-87.7343123,41.8859218],[-87.7355855,41.8859934],[-87.7380556,41.8861322],[-87.7405428,41.8862723],[-87.7412978,41.8863172],[-87.7429603,41.886416],[-87.744691,41.8865189],[-87.7446984,41.8865194]]]}},{"type":"Feature","properties":{"lines":["Green","Orange"],"line_label":"Green/Orange","segment_type":"eag","segment_type_label":"Elevated","avg_daily_trains":511.1},"geometry":{"type":"MultiLineString","coordinates":[[[-87.62603,41.8767036],[-87.6259786,41.8756935],[-87.6259977,41.8753822],[-87.6260155,41.8752631],[-87.6260998,41.8751033],[-87.6261615,41.8749927],[-87.626223,41.8748986],[-87.6263233,41.8747841],[-87.6264012,41.8746983],[-87.6265125,41.8745797],[-87.6265852,41.8744692],[-87.6266803,41.8743218],[-87.6267344,41.8742131],[-87.6267763,41.8740963],[-87.6267994,41.8739978],[-87.626806,41.8738951],[-87.6267962,41.8737841],[-87.6267926,41.8736114],[-87.626711,41.8699747],[-87.6265899,41.867405]],[[-87.6265899,41.867405],[-87.6265633,41.8657331],[-87.6264996,41.8618882],[-87.6264727,41.8601616],[-87.626418,41.8587587]]]}},{"type":"Feature","properties":{"lines":["Green","Pink"],"line_label":"Green/Pink","segment_type":"eag","segment_type_label":"Elevated","avg_daily_trains":483.3},"geometry":{"type":"MultiLineString","coordinates":[[[-87.6520187,41.8855786],[-87.6531095,41.8855602],[-87.6555866,41.8855348],[-87.656727,41.8855022],[-87.6583462,41.8854831],[-87.6614795,41.8854334],[-87.6631229,41.8853893],[-87.6641433,41.8853774],[-87.6651638,41.8853511],[-87.6669509,41.8853114]],[[-87.6339132,41.8857245],[-87.6360573,41.8857161],[-87.638159,41.8857077],[-87.6394432,41.8857026],[-87.6417713,41.8857034]],[[-87.6669509,41.8853114],[-87.6694287,41.8852426]],[[-87.6417713,41.8857034],[-87.6427994,41.8857025],[-87.6439413,41.8857069],[-87.6450612,41.8856943],[-87.6463382,41.8856789],[-87.6473552,41.8856638],[-87.648506,41.8856457],[-87.6497213,41.8856221],[-87.6508799,41.885604],[-87.6518737,41.8855811],[-87.6520187,41.8855786]]]}},{"type":"Feature","properties":{"lines":["Orange"],"line_label":"Orange","segment_type":"eag","segment_type_label":"Elevated","avg_daily_trains":264.1},"geometry":{"type":"MultiLineString","coordinates":[[[-87.7379564,41.7866136],[-87.7381645,41.7923248],[-87.7381579,41.7927035],[-87.738114,41.7929677],[-87.7380575,41.7932271],[-87.7379733,41.7933838],[-87.7377147,41.7938065],[-87.7375665,41.7939963],[-87.7373096,41.7942451],[-87.7369662,41.7945411],[-87.736604,41.7948061],[-87.7361908,41.795085],[-87.7358036,41.7953045],[-87.7352373,41.7956113],[-87.7347801,41.7958185],[-87.7340133,41.7961147],[-87.7281914,41.7984211],[-87.7244496,41.7998878]],[[-87.7244496,41.7998878],[-87.7207444,41.8015095],[-87.7181391,41.8026128],[-87.7167648,41.8031652],[-87.7157485,41.8035695],[-87.7150555,41.8037897],[-87.7146437,41.8039018],[-87.7141236,41.8040205],[-87.7136261,41.8041131],[-87.7132276,41.8041681],[-87.7125202,41.8042286],[-87.7117718,41.8042508],[-87.7097911,41.8042853],[-87.7067342,41.8043306],[-87.7043207,41.8043484]],[[-87.684065,41.8046836],[-87.6830364,41.8047039],[-87.6824061,41.8046932],[-87.6821162,41.8047154],[-87.6818037,41.8047613],[-87.6813409,41.8048682],[-87.6810375,41.8049666],[-87.6807015,41.8051314],[-87.6804195,41.8053132],[-87.6801595,41.8055214],[-87.6799567,41.8057323],[-87.6798307,41.8059126],[-87.6796912,41.8061714],[-87.6796092,41.8064044],[-87.6795588,41.8066662],[-87.6795306,41.8069328],[-87.6795797,41.8086864],[-87.6796305,41.8108855],[-87.6796681,41.8118886],[-87.6797237,41.8142472],[-87.6797804,41.8146263],[-87.6797976,41.8148099],[-87.6798798,41.8151843],[-87.6800085,41.8156782],[-87.6801793,41.8161056],[-87.6803659,41.8165473],[-87.6817081,41.8185893],[-87.683086,41.8205815],[-87.6849355,41.8231814],[-87.685689,41.8242576],[-87.6859497,41.8246212],[-87.6860684,41.8248458],[-87.6861371,41.8249819],[-87.6862013,41.8252515],[-87.6862122,41.8254302],[-87.6862076,41.8255731],[-87.6861312,41.8258824],[-87.6860302,41.8261057],[-87.6859074,41.8262813],[-87.6856951,41.8264921],[-87.6854736,41.8266624],[-87.6851661,41.8268417],[-87.6848043,41.8270302],[-87.6842952,41.8272966],[-87.6817439,41.8288806],[-87.6805874,41.8295601]],[[-87.6805874,41.8295601],[-87.6779685,41.8311746],[-87.6747569,41.8331405],[-87.6732562,41.8341134],[-87.6707888,41.8358453],[-87.6690688,41.8370646],[-87.6678466,41.837896],[-87.6669132,41.8385147],[-87.6662435,41.838892],[-87.6653117,41.8393559]],[[-87.7043207,41.8043484],[-87.6982003,41.8044553],[-87.6942738,41.8045383],[-87.6910926,41.804592],[-87.6868736,41.8046351],[-87.684065,41.8046836]],[[-87.6481311,41.8469014],[-87.646533,41.847678],[-87.6457843,41.8479737],[-87.6451385,41.8481818],[-87.644391,41.8483655],[-87.6435092,41.8485985],[-87.6428189,41.8488118],[-87.6412243,41.8495779],[-87.6406081,41.8499484],[-87.6403158,41.8501681],[-87.6401455,41.8502981],[-87.6389072,41.8516699],[-87.6380042,41.8526817],[-87.6365622,41.854319],[-87.6359467,41.8549513],[-87.6352489,41.8555355],[-87.633979,41.8565687],[-87.6335746,41.8568378],[-87.6330523,41.8571086],[-87.6325115,41.8573197],[-87.6319778,41.8574618],[-87.6315849,41.8575451],[-87.6313008,41.857591],[-87.6307555,41.8576353],[-87.6278266,41.8576865],[-87.6274119,41.8577244],[-87.6272682,41.8577521],[-87.6271276,41.8577917],[-87.6269901,41.8578362],[-87.6268203,41.8579113],[-87.6266921,41.8579844],[-87.6265988,41.8580648],[-87.6265477,41.8581216],[-87.6264698,41.8582443],[-87.6264558,41.8583888],[-87.626418,41.8587587]]]}},{"type":"Feature","properties":{"lines":["Orange"],"line_label":"Orange","segment_type":"hwy","segment_type_label":"Highway median","avg_daily_trains":264.1},"geometry":{"type":"LineString","coordinates":[[-87.6653117,41.8393559],[-87.6622671,41.8408032],[-87.6587259,41.8425095],[-87.6577974,41.8429471],[-87.654339,41.8446347],[-87.6535745,41.8449185],[-87.6531268,41.8450802],[-87.6526441,41.8452346],[-87.6520626,41.8453907],[-87.6514238,41.8455465],[-87.6506536,41.8457778],[-87.6500971,41.8459793],[-87.6494187,41.8462564],[-87.6481311,41.8469014]]}},{"type":"Feature","properties":{"lines":["Pink"],"line_label":"Pink","segment_type":"eag","segment_type_label":"Elevated","avg_daily_trains":235.8},"geometry":{"type":"MultiLineString","coordinates":[[[-87.6695432,41.871563],[-87.6694965,41.8697272],[-87.6694817,41.869146],[-87.6694545,41.8680787],[-87.6694203,41.8667379],[-87.6693486,41.8648084],[-87.669293,41.862794],[-87.6692443,41.8610285],[-87.6692158,41.8600874],[-87.6691601,41.8579077]],[[-87.6851792,41.8543968],[-87.6885159,41.8543838],[-87.6948229,41.8542796]],[[-87.6948229,41.8542796],[-87.698303,41.8542477],[-87.7011585,41.8541944],[-87.7023122,41.8541771],[-87.704256,41.8541481],[-87.705428,41.8541306]],[[-87.7148803,41.853992],[-87.7167051,41.8539457],[-87.7201405,41.8539123],[-87.7230334,41.8538672],[-87.7243267,41.8538568]],[[-87.6691601,41.8579077],[-87.6690974,41.8553253],[-87.6691074,41.8552121],[-87.6691166,41.8551748],[-87.6691424,41.8550976],[-87.6691688,41.8550412],[-87.6691906,41.8549894],[-87.6692339,41.8549303],[-87.6693037,41.8548604],[-87.6693645,41.8548123],[-87.6694756,41.8547371],[-87.6695219,41.8547136],[-87.6695702,41.8546915],[-87.669641,41.8546633],[-87.6696914,41.8546452],[-87.6697532,41.8546277],[-87.6698106,41.8546181],[-87.6698946,41.8546043],[-87.6699549,41.8545991],[-87.6735731,41.8545573],[-87.674605,41.8545392],[-87.6759741,41.8545149]],[[-87.705428,41.8541306],[-87.7097703,41.8540463],[-87.7148803,41.853992]],[[-87.7243267,41.8538568],[-87.7259329,41.8538751],[-87.7273597,41.8538666],[-87.7299506,41.8538141],[-87.7332637,41.8537507]],[[-87.6695432,41.871563],[-87.6696433,41.8751497],[-87.6697011,41.8754265],[-87.669712,41.8757392],[-87.6697348,41.8768849],[-87.6697543,41.8775468],[-87.6697604,41.8777612],[-87.6697658,41.8778005],[-87.6697754,41.8778658],[-87.6697878,41.8779033],[-87.6698041,41.877947],[-87.6698266,41.877997],[-87.6698588,41.878048],[-87.6699443,41.8781703],[-87.6699999,41.8782645],[-87.6700378,41.8783647],[-87.6700557,41.8784819],[-87.6700563,41.8785746],[-87.6700577,41.8789263],[-87.6701192,41.880582],[-87.6701871,41.882747],[-87.6701348,41.8830644],[-87.6700964,41.8834106],[-87.67012,41.8839935],[-87.6701381,41.8843886],[-87.6701437,41.8845599],[-87.6701313,41.8846868],[-87.670113,41.8848036],[-87.6700617,41.884881],[-87.6700117,41.8849426],[-87.6698945,41.8850638],[-87.6697867,41.8851295],[-87.6696344,41.8851977],[-87.6694287,41.8852426]],[[-87.7332637,41.8537507],[-87.7346044,41.8537339],[-87.734781,41.8537286],[-87.7349603,41.8537153],[-87.7350944,41.8536927],[-87.7352142,41.8536612],[-87.7353849,41.8536128],[-87.7355522,41.8535415],[-87.7356747,41.853476],[-87.7357996,41.8534088],[-87.7359103,41.8533289],[-87.7361539,41.8530801],[-87.7365894,41.8525961],[-87.7368126,41.8524082],[-87.7369352,41.8523213],[-87.7371713,41.8522036],[-87.7373623,41.8521359],[-87.7374917,41.852099],[-87.7376091,41.8520693],[-87.7377646,41.8520486],[-87.7379344,41.852037],[-87.7390337,41.8520302],[-87.7398749,41.8520167],[-87.7425256,41.8519607],[-87.745342,41.8519247]],[[-87.745342,41.8519247],[-87.7492104,41.8518797],[-87.7521299,41.8518837],[-87.756692,41.8517733]],[[-87.6759741,41.8545149],[-87.6823447,41.8544424],[-87.6829064,41.8544335],[-87.6832173,41.8544284],[-87.6851792,41.8543968]]]}},{"type":"Feature","properties":{"lines":["Purple"],"line_label":"Purple","segment_type":"eag","segment_type_label":"Elevated","avg_daily_trains":305.6},"geometry":{"type":"MultiLineString","coordinates":[[[-87.6833369,42.0582825],[-87.6833328,42.0579388],[-87.6833611,42.0573869],[-87.6833887,42.0569083],[-87.6835212,42.0557711],[-87.6835109,42.0552979],[-87.6835404,42.0546333],[-87.6835603,42.0541602]],[[-87.681602,42.0416546],[-87.6815223,42.0413218],[-87.6814721,42.0410511],[-87.6813643,42.0405097],[-87.6808491,42.0382373],[-87.6803345,42.0359177],[-87.6799362,42.0342255],[-87.6798255,42.0339643],[-87.6796117,42.0336322],[-87.6795379,42.0334557]],[[-87.6783294,42.0276118],[-87.6781098,42.026099],[-87.6777536,42.024321],[-87.6775203,42.023211],[-87.6774324,42.0227433],[-87.6773023,42.0224108],[-87.6771855,42.0222332],[-87.6770535,42.0220859],[-87.6768915,42.0219744],[-87.6757357,42.0212992],[-87.6740564,42.0200221],[-87.6738825,42.0198634],[-87.673398,42.0194694],[-87.6728925,42.0190632]],[[-87.6856173,42.0639865],[-87.6848487,42.0627413],[-87.684166,42.0614812],[-87.6838171,42.0608596],[-87.683736,42.0606563],[-87.683692,42.0605265],[-87.6836551,42.0604305],[-87.683604,42.0602556],[-87.6835384,42.0600186],[-87.683429,42.0596293],[-87.6833936,42.0593925],[-87.683352,42.0590205],[-87.683334,42.0585641],[-87.6833277,42.0584458],[-87.6833369,42.0582825]],[[-87.6795379,42.0334557],[-87.6792589,42.0321162],[-87.6789155,42.0306003],[-87.6785547,42.0289435],[-87.6783294,42.0276118]],[[-87.6835429,42.0477101],[-87.6835795,42.047085],[-87.6835804,42.0469949],[-87.6834619,42.0467576],[-87.6832617,42.0463847],[-87.683018,42.0458256],[-87.6827667,42.0452721],[-87.6824199,42.0444477],[-87.6822212,42.0439227],[-87.6818554,42.0427433],[-87.681602,42.0416546]],[[-87.6907295,42.0731528],[-87.6903229,42.0723948],[-87.6898522,42.0716152],[-87.6895358,42.0711185],[-87.6892475,42.0706645],[-87.6889101,42.0701251],[-87.6885246,42.0694045],[-87.6882095,42.0687854],[-87.6879152,42.068225],[-87.6873069,42.0669951],[-87.6868139,42.0661097],[-87.6865102,42.0655641],[-87.6860811,42.0647934],[-87.6857316,42.0641854],[-87.6856173,42.0639865]],[[-87.6835603,42.0541602],[-87.6835423,42.0529659],[-87.6834957,42.0523403],[-87.68349,42.0521657],[-87.6834876,42.051653],[-87.6835298,42.049],[-87.6835426,42.0484875],[-87.6835429,42.0477101]]]}},{"type":"Feature","properties":{"lines":["Red"],"line_label":"Red","segment_type":"subway","segment_type_label":"Subway","avg_daily_trains":398.9},"geometry":{"type":"MultiLineString","coordinates":[[[-87.6276965,41.8807446],[-87.6275961,41.8781528]],[[-87.6278134,41.8848089],[-87.6277484,41.8832147],[-87.6276965,41.8807446]],[[-87.6274024,41.8673677],[-87.6273595,41.865754],[-87.627309,41.8640366],[-87.6273923,41.8636328],[-87.6275556,41.8633735],[-87.6276774,41.8632542],[-87.6277811,41.8631557],[-87.6280349,41.8629643],[-87.6284905,41.862686],[-87.6293413,41.8621147],[-87.6301778,41.8613814],[-87.6305816,41.8609284],[-87.6309444,41.8603451],[-87.6310143,41.8602757],[-87.631122,41.8601294],[-87.6312035,41.8599607],[-87.6312949,41.8597636],[-87.6313645,41.8595186],[-87.6314186,41.8592307],[-87.6314378,41.8589402],[-87.6314405,41.8586925],[-87.6314187,41.8574609],[-87.6313612,41.8557519],[-87.6312773,41.8545401],[-87.6311552,41.8538931],[-87.6310617,41.8535132],[-87.6309678,41.8532058]],[[-87.6281764,41.8966712],[-87.6281292,41.895623],[-87.6280882,41.8941188],[-87.6280395,41.8923342],[-87.6280213,41.8916652]],[[-87.6491773,41.9106546],[-87.6478544,41.9097077],[-87.6455453,41.908067],[-87.6406861,41.9045805],[-87.639934,41.9040408],[-87.6397121,41.9039176],[-87.6395055,41.9038337],[-87.639257,41.9037908],[-87.6389566,41.9037905],[-87.6369805,41.9038248],[-87.6344701,41.9038683],[-87.6314123,41.9039203]],[[-87.6525004,41.9140595],[-87.6524938,41.9132682],[-87.652491,41.9131618],[-87.6524858,41.9130812],[-87.6524244,41.9129875],[-87.6523528,41.9129336],[-87.651407,41.9122556],[-87.650698,41.9117455],[-87.6491773,41.9106546]],[[-87.6275961,41.8781528],[-87.6275658,41.8768745],[-87.6275433,41.8759249],[-87.6275117,41.8747142],[-87.6274791,41.8740392]],[[-87.6274791,41.8740392],[-87.6274872,41.8730572],[-87.6274566,41.8718907],[-87.627469,41.8707634],[-87.6274514,41.8692146],[-87.6274024,41.8673677]],[[-87.6314123,41.9039203],[-87.6290771,41.9039452],[-87.6289143,41.9039361],[-87.6288024,41.903903],[-87.6287449,41.9038702],[-87.6286948,41.9038185],[-87.6286665,41.9037561],[-87.6286424,41.9036424],[-87.6286201,41.9031634],[-87.6283479,41.9021203],[-87.6282973,41.9002617],[-87.6282641,41.8991365],[-87.6281764,41.8966712]],[[-87.6280213,41.8916652],[-87.6279953,41.8907147],[-87.6279893,41.8896486],[-87.627935,41.8878325],[-87.6278308,41.8859611],[-87.6278352,41.8857404],[-87.6278134,41.8848089]]]}},{"type":"Feature","properties":{"lines":["Red"],"line_label":"Red","segment_type":"hwy","segment_type_label":"Highway median","avg_daily_trains":398.9},"geometry":{"type":"MultiLineString","coordinates":[[[-87.6247531,41.7353712],[-87.6247218,41.7344831],[-87.6246343,41.7321175],[-87.6245841,41.7290447],[-87.6245437,41.7280013],[-87.6244147,41.722376]],[[-87.6251784,41.7504123],[-87.6249981,41.7445995],[-87.624967,41.7430298],[-87.6248228,41.7394834],[-87.6247839,41.7361349],[-87.6247531,41.7353712]],[[-87.6310004,41.7805343],[-87.6309713,41.7798222],[-87.630932,41.7794214],[-87.6308187,41.7789233],[-87.6307668,41.7787421],[-87.6306465,41.7784682],[-87.6304839,41.7781486],[-87.6302806,41.7778323],[-87.6300395,41.7774892],[-87.6297901,41.7772288],[-87.6295394,41.7769796],[-87.6292562,41.7767697],[-87.6288206,41.7764419],[-87.6285263,41.7762329],[-87.6275037,41.7754088],[-87.6272507,41.7751435],[-87.6271193,41.7750064],[-87.6270397,41.7749057],[-87.6268311,41.7746318],[-87.6266992,41.7744505],[-87.6265183,41.7741605],[-87.6264441,41.7740208],[-87.6264151,41.7739742],[-87.6263497,41.7738301],[-87.626194,41.7734888],[-87.6261753,41.7734326],[-87.6260276,41.7729573],[-87.626007,41.7728643],[-87.6259628,41.7725863],[-87.6259536,41.7725243],[-87.62592,41.7721811],[-87.6258978,41.7718715],[-87.6258488,41.770149],[-87.6258094,41.7683679]],[[-87.6306363,41.8311906],[-87.630559,41.8274837],[-87.6305018,41.82519],[-87.6304361,41.8226856],[-87.630309,41.8176867],[-87.6302791,41.8164671],[-87.6302518,41.81524],[-87.6302109,41.8135075],[-87.6301863,41.8128108],[-87.6301935,41.8124674],[-87.6302185,41.8121384],[-87.630272,41.8118187],[-87.6303793,41.8114724],[-87.6304148,41.8113848],[-87.6305573,41.811086],[-87.6310258,41.8103381]],[[-87.6258094,41.7683679],[-87.6256911,41.7654157],[-87.6256722,41.7628957],[-87.6255743,41.758147],[-87.6255329,41.7560393],[-87.6254957,41.7551585],[-87.6253748,41.7538762],[-87.6253061,41.7531612],[-87.6252501,41.75264],[-87.6252048,41.7518876],[-87.6251909,41.7512834],[-87.6251784,41.7504123]],[[-87.6311692,41.7954183],[-87.6311447,41.7939017],[-87.6310992,41.7916724],[-87.6310038,41.7877218],[-87.6310312,41.7872155],[-87.6311221,41.7855822],[-87.6310601,41.7833598],[-87.631045,41.7826998],[-87.6310004,41.7805343]],[[-87.6310258,41.8103381],[-87.6313361,41.8098476],[-87.6315163,41.8094673],[-87.6315673,41.8093298],[-87.6315862,41.809286],[-87.6316005,41.8092396],[-87.6316137,41.8091889],[-87.6316803,41.8089922],[-87.6316957,41.8089535],[-87.6317406,41.8087004],[-87.6317717,41.8085295],[-87.6317915,41.8082989],[-87.6318067,41.8080458],[-87.6317891,41.8076823],[-87.6317329,41.8068987],[-87.6316203,41.8053475],[-87.6314619,41.8030531],[-87.6313451,41.8018896],[-87.6313221,41.8008373],[-87.6312413,41.7977537],[-87.6311692,41.7954183]],[[-87.6309678,41.8532058],[-87.6309059,41.8529389],[-87.6308499,41.8526763],[-87.6308207,41.8524284],[-87.6307349,41.8517912],[-87.6306888,41.8510722],[-87.630686,41.8496023],[-87.6307248,41.8489689],[-87.6308493,41.8483622],[-87.6310119,41.847477],[-87.6310885,41.847175],[-87.6311493,41.8468537],[-87.6311703,41.8466895],[-87.6312035,41.8464725],[-87.6312718,41.8458564],[-87.6312792,41.8454716],[-87.6312565,41.8445832],[-87.6311358,41.8428516],[-87.6310316,41.8418372],[-87.6309304,41.8403657],[-87.630867,41.8395253],[-87.6308113,41.8372117],[-87.6307464,41.8349462],[-87.6306363,41.8311906]]]}},{"type":"Feature","properties":{"lines":["Red","Purple"],"line_label":"Red/Purple","segment_type":"eag","segment_type_label":"Elevated","avg_daily_trains":479.9},"geometry":{"type":"MultiLineString","coordinates":[[[-87.658493,41.9691389],[-87.6584656,41.9683761],[-87.6584221,41.967459],[-87.6583843,41.9668815],[-87.6583586,41.96669],[-87.6583509,41.9664899],[-87.6583138,41.9661815],[-87.6581988,41.9657764],[-87.6577344,41.9642547]],[[-87.6549294,41.9537749],[-87.6543065,41.9537535],[-87.6540786,41.953734],[-87.6539391,41.9537026],[-87.6538507,41.9536445],[-87.6537861,41.9535821],[-87.6537334,41.9535154],[-87.6536927,41.953431],[-87.6536847,41.9533203],[-87.6536716,41.9531115],[-87.6536259,41.952456],[-87.6536605,41.9519955],[-87.6536583,41.9510829],[-87.6536456,41.9505999],[-87.6536355,41.9481989],[-87.6536259,41.947428]],[[-87.6728925,42.0190632],[-87.6723243,42.0185954],[-87.6717746,42.0181427],[-87.6714209,42.01785],[-87.6707872,42.0173258],[-87.6703651,42.0169764],[-87.6698821,42.0165768],[-87.6690921,42.0158762]],[[-87.6610607,42.0010734],[-87.6608278,42.0008994],[-87.6606701,42.0007558],[-87.6604919,42.0005892],[-87.6603517,42.0004366],[-87.6602116,42.0002748],[-87.6600471,42.0000853],[-87.659895,41.9998866],[-87.65978,41.9996882],[-87.659647,41.9994344],[-87.6595568,41.9992177],[-87.659479,41.9989965],[-87.6594255,41.998803],[-87.6593548,41.9984945],[-87.6593083,41.9982228],[-87.6592677,41.9979834],[-87.6592665,41.9975097],[-87.6592572,41.9972245],[-87.6592112,41.9963227],[-87.6591892,41.9954901],[-87.6591831,41.9946346],[-87.6592023,41.9936643]],[[-87.6588403,41.9835042],[-87.6587921,41.9818441],[-87.6587505,41.9805928],[-87.6587164,41.9796687],[-87.6586684,41.977984]],[[-87.6690921,42.0158762],[-87.6676922,42.014663],[-87.6671833,42.0142149],[-87.6668905,42.0138818],[-87.6666347,42.0135489],[-87.6662982,42.0129738],[-87.6661262,42.0125931],[-87.6660556,42.0122681],[-87.6660138,42.0118329],[-87.6659713,42.0105898],[-87.6659091,42.0083618]],[[-87.6592023,41.9936643],[-87.6591305,41.992353],[-87.6590808,41.9908319],[-87.6590759,41.9902595]],[[-87.65853,41.9734533],[-87.6584882,41.97118],[-87.658493,41.9691389]],[[-87.6577344,41.9642547],[-87.6576315,41.9639542],[-87.6569987,41.9618142],[-87.6568901,41.9586107],[-87.6568367,41.9569226],[-87.656769,41.9549066],[-87.6567387,41.9544102],[-87.6567398,41.9542995],[-87.6567175,41.9541665],[-87.6566476,41.954042],[-87.6565653,41.9539662],[-87.6564654,41.953877],[-87.6563475,41.953801],[-87.656235,41.9537738],[-87.656063,41.9537639],[-87.6555704,41.9537654],[-87.6549294,41.9537749]],[[-87.6586684,41.977984],[-87.6585879,41.975228],[-87.65853,41.9734533]],[[-87.6659091,42.0083618],[-87.6658316,42.0068661],[-87.6657697,42.0061845],[-87.6657125,42.0058597],[-87.6655256,42.0052497],[-87.6652712,42.0046653],[-87.6649991,42.0041479],[-87.6647683,42.0038154],[-87.6644754,42.0034801],[-87.6640055,42.0030474],[-87.6634618,42.0026379],[-87.6634613,42.0026374],[-87.6628805,42.0022652],[-87.6622492,42.0018689],[-87.6616575,42.001525],[-87.6614202,42.0013668],[-87.6610607,42.0010734]],[[-87.6536259,41.947428],[-87.6536198,41.9468919],[-87.6535348,41.9453897],[-87.6535149,41.944477],[-87.6534747,41.9443483],[-87.6534228,41.9442107],[-87.6534184,41.9440644],[-87.6534024,41.9438916],[-87.653388,41.9435725],[-87.6533626,41.9431737],[-87.6533775,41.9428814],[-87.6533975,41.9426822],[-87.6534245,41.9423722],[-87.6534539,41.9421768]],[[-87.6590759,41.9902595],[-87.6590144,41.9888119],[-87.6589833,41.9876015],[-87.6588736,41.984502],[-87.6588403,41.9835042]]]}},{"type":"Feature","properties":{"lines":["Yellow"],"line_label":"Yellow","segment_type":"eag","segment_type_label":"Elevated","avg_daily_trains":152.8},"geometry":{"type":"MultiLineString","coordinates":[[[-87.7472002,42.0261919],[-87.7470958,42.0259079],[-87.7469622,42.0256259],[-87.746807,42.0253501],[-87.7466308,42.0250814],[-87.7464341,42.0248207],[-87.7462176,42.0245689],[-87.745982,42.0243268],[-87.7457281,42.0240953],[-87.7454567,42.023875],[-87.7451687,42.0236668],[-87.7448651,42.0234712],[-87.744547,42.0232891],[-87.7442153,42.0231209],[-87.7438711,42.0229672],[-87.7435157,42.0228286],[-87.7431501,42.0227054],[-87.7427756,42.0225982],[-87.7423935,42.0225073],[-87.7420049,42.0224329],[-87.7412404,42.0223533],[-87.7405894,42.0223091],[-87.737881,42.0223106],[-87.7308077,42.0223358],[-87.7282054,42.0223376],[-87.7233237,42.0223408],[-87.7227284,42.0223526],[-87.7224307,42.0223623],[-87.7221935,42.0223761],[-87.7219512,42.0223974],[-87.7213202,42.022458],[-87.720891,42.0224988],[-87.7204552,42.0225333],[-87.7201085,42.0225477],[-87.7198035,42.0225734],[-87.7191411,42.0226145],[-87.718521,42.0226233],[-87.718203,42.0226433],[-87.7180531,42.0226455],[-87.7179009,42.0226477],[-87.7169064,42.0226535],[-87.716023,42.0226453],[-87.7153324,42.0226552],[-87.7149619,42.0226606],[-87.7144023,42.0226594],[-87.7138207,42.0226522],[-87.7127401,42.0226012],[-87.7118035,42.022577],[-87.7113256,42.022565],[-87.7107417,42.0225556],[-87.7103928,42.0225499],[-87.7102181,42.022544],[-87.709819,42.0225303],[-87.7087856,42.0224949],[-87.7083197,42.0225046],[-87.7078702,42.0225093],[-87.7073163,42.0225017],[-87.7066034,42.0225209],[-87.7041547,42.0225768],[-87.7029999,42.0226225],[-87.7018146,42.0226275],[-87.7010092,42.0225942],[-87.7003114,42.0225326],[-87.6997841,42.022468],[-87.6994739,42.0224281],[-87.698559,42.0223205],[-87.6975034,42.0222282],[-87.6971937,42.0222034],[-87.696636,42.0221945],[-87.6957993,42.0222014],[-87.69497,42.0222315],[-87.6942959,42.0222451],[-87.6933274,42.022257],[-87.6925606,42.0222412],[-87.6918565,42.0221506],[-87.691609,42.0221088],[-87.6913461,42.0220611],[-87.6909553,42.0220005],[-87.6904874,42.021948],[-87.6900528,42.0219206],[-87.6895962,42.0218515],[-87.6892287,42.0217996],[-87.6887792,42.0217574],[-87.6880083,42.0216965],[-87.6874561,42.0216953],[-87.6860563,42.0217084],[-87.6857431,42.0217081],[-87.6848384,42.0217074],[-87.682168,42.021705],[-87.6796344,42.0217094],[-87.6791568,42.0216824],[-87.6786231,42.0216358],[-87.6781149,42.0215825],[-87.6778316,42.0215288],[-87.677618,42.0214836],[-87.6774791,42.0214586],[-87.6773316,42.0214321],[-87.6771646,42.0214022],[-87.6769239,42.021342],[-87.6765998,42.0212557],[-87.6762845,42.021146],[-87.6758884,42.0209819],[-87.6755558,42.0208048],[-87.6751333,42.0205732],[-87.6747377,42.0203552],[-87.6744862,42.0202054],[-87.6738825,42.0198634],[-87.673398,42.0194694],[-87.6728925,42.0190632]],[[-87.7519186,42.0389507],[-87.7516062,42.0381124],[-87.7512577,42.0373566],[-87.7511723,42.0371699],[-87.7507992,42.0363541],[-87.7503978,42.0355002],[-87.7503259,42.0353294],[-87.7500589,42.0347281],[-87.7496946,42.0339595],[-87.7495207,42.0334615],[-87.7494821,42.0333508],[-87.7493655,42.032931],[-87.7492398,42.0325548],[-87.7492113,42.0324613],[-87.7490761,42.0320186],[-87.7486836,42.0309118],[-87.7486125,42.0306522],[-87.7481999,42.0292629],[-87.7479521,42.0284578],[-87.7478246,42.028077],[-87.7477207,42.0277663],[-87.7475826,42.0273295],[-87.7474265,42.026788],[-87.7473202,42.0264836],[-87.7472056,42.0262066],[-87.7472002,42.0261919]]]}}]}